{
  "type": "FeatureCollection",
  "features": [
    {"type": "Feature", "properties": {"name_th": "สโมสรการบินอยุธยา", "name_en": "AYUTTHAYA FLYING CLUB", "icao": "", "iata": "", "type": "Private/Club"}, "geometry": {"type": "Point", "coordinates": [100.578056, 14.3225]}},
    {"type": "Feature", "properties": {"name_th": "สนามบินบ้านบึง", "name_en": "BAN BUNG AIRFIED", "icao": "", "iata": "", "type": "Airfield"}, "geometry": {"type": "Point", "coordinates": [101.125833, 13.3]}},
    {"type": "Feature", "properties": {"name_th": "สนามบินบ้านซ่อง", "name_en": "BANCHONG AIRFIELD", "icao": "", "iata": "", "type": "Airfield"}, "geometry": {"type": "Point", "coordinates": [100.020833, 12.927222]}},
    {"type": "Feature", "properties": {"name_th": "ท่าอากาศยานสุวรรณภูมิ", "name_en": "BANGKOK/ SUVARNABHUMI", "icao": "VTBS", "iata": "BKK", "type": "International"}, "geometry": {"type": "Point", "coordinates": [100.74888888889, 13.685833333333]}},
    {"type": "Feature", "properties": {"name_th": "สนามบินบางพระ", "name_en": "BANG PHRA AIRFIELD", "icao": "VTBT", "iata": "", "type": "Airfield"}, "geometry": {"type": "Point", "coordinates": [100.95833333333, 13.233333333333]}},
    {"type": "Feature", "properties": {"name_th": "สนามบินบ้านห้วยขี้หนู", "name_en": "BAN HUAI KHI NU", "icao": "", "iata": "", "type": "Airfield"}, "geometry": {"type": "Point", "coordinates": [100.929444, 15.06]}},
    {"type": "Feature", "properties": {"name_th": "สนามบินบ้านใหม่ (ฉุกเฉิน/ปิด)", "name_en": "BAN MAI (CLOSED EMERGENCY)", "icao": "", "iata": "", "type": "Emergency"}, "geometry": {"type": "Point", "coordinates": [100.7125, 17.749722]}},
    {"type": "Feature", "properties": {"name_th": "สนามบินบ้านเขว้า ชัยภูมิ", "name_en": "BAN KWAO (STOL) CHAIYAPHUM", "icao": "", "iata": "", "type": "Airfield"}, "geometry": {"type": "Point", "coordinates": [101.949774, 15.770345]}},
    {"type": "Feature", "properties": {"name_th": "สนามบินบ้านนาคู (ฉุกเฉิน/ปิด)", "name_en": "BAN NA KHU (CLOSED EMERGENCY)", "icao": "VTUA", "iata": "", "type": "Emergency"}, "geometry": {"type": "Point", "coordinates": [104.03396, 16.77309]}},
    {"type": "Feature", "properties": {"name_th": "สนามบินบ้านธิ เชียงใหม่", "name_en": "BAN THI CHIANG MAI AIRFIELD", "icao": "VTCM", "iata": "", "type": "Airfield"}, "geometry": {"type": "Point", "coordinates": [99.104722, 18.676389]}},
    {"type": "Feature", "properties": {"name_th": "สนามบินเบสท์โอเชียน", "name_en": "BEST OCEAN AIRFIELD", "icao": "", "iata": "", "type": "Airfield"}, "geometry": {"type": "Point", "coordinates": [100.329291, 13.540452]}},
    {"type": "Feature", "properties": {"name_th": "สนามบินเบตง (ฉุกเฉิน/ปิด)", "name_en": "BETONG (CLOSED EMERGENCY)", "icao": "", "iata": "", "type": "Emergency"}, "geometry": {"type": "Point", "coordinates": [101.159444, 5.781667]}},
    {"type": "Feature", "properties": {"name_th": "ท่าอากาศยานชะเอียน", "name_en": "CHA IAN AIRPORT", "icao": "VTSN", "iata": "", "type": "Airport"}, "geometry": {"type": "Point", "coordinates": [99.958333, 8.463889]}},
    {"type": "Feature", "properties": {"name_th": "สนามบินท่าใหม่ จันทบุรี", "name_en": "CHANTBURI THA MAI FIELD", "icao": "VTBC", "iata": "", "type": "Airfield"}, "geometry": {"type": "Point", "coordinates": [102.025816, 12.632591]}},
    {"type": "Feature", "properties": {"name_th": "สนามบินชาโตเดอเลย", "name_en": "CHATEAU DE LOEI AIRFIELD", "icao": "", "iata": "", "type": "Airfield"}, "geometry": {"type": "Point", "coordinates": [101.309444, 17.3875]}},
    {"type": "Feature", "properties": {"name_th": "สนามบินเจ้าไหม (ชั่วคราว)", "name_en": "CHAO MAI FIELD (TEMP)", "icao": "", "iata": "", "type": "Airfield"}, "geometry": {"type": "Point", "coordinates": [99.418694, 7.348102]}},
    {"type": "Feature", "properties": {"name_th": "ท่าอากาศยานแม่ฟ้าหลวง เชียงราย", "name_en": "CHIANG RAI AIRPORT", "icao": "VTCT", "iata": "CEI", "type": "Commercial"}, "geometry": {"type": "Point", "coordinates": [99.8829, 19.9523]}},
    {"type": "Feature", "properties": {"name_th": "ท่าอากาศยานเชียงราย (เก่า)", "name_en": "CHIANG RAI AIRPORT", "icao": "VTCR", "iata": "", "type": "Airport"}, "geometry": {"type": "Point", "coordinates": [99.8268, 19.8854]}},
    {"type": "Feature", "properties": {"name_th": "สนามบินชนแดน", "name_en": "CHONDAEN AIRFIELD", "icao": "", "iata": "", "type": "Airfield"}, "geometry": {"type": "Point", "coordinates": [100.89848, 16.174369]}},
    {"type": "Feature", "properties": {"name_th": "ท่าอากาศยานบุรีรัมย์", "name_en": "BURIRAM AIRPORT", "icao": "VTUO", "iata": "BFV", "type": "Commercial"}, "geometry": {"type": "Point", "coordinates": [103.253, 15.2295]}},
    {"type": "Feature", "properties": {"name_th": "สนามบินชลบุรี (ทหาร/ปิดฉุกเฉิน)", "name_en": "CHONBURI (MIL CLOSED EMERGENCY)", "icao": "", "iata": "", "type": "Military"}, "geometry": {"type": "Point", "coordinates": [101.006379, 13.39321]}},
    {"type": "Feature", "properties": {"name_th": "ท่าอากาศยานชุมพร", "name_en": "CHUMPON AIRPORT", "icao": "VTSE", "iata": "CJM", "type": "Commercial"}, "geometry": {"type": "Point", "coordinates": [99.3617, 10.7112]}},
    {"type": "Feature", "properties": {"name_th": "สนามบินบ้านหมี่", "name_en": "BAN MI AIRFIELD", "icao": "", "iata": "", "type": "Airfield"}, "geometry": {"type": "Point", "coordinates": [100.623333, 15.113333]}},
    {"type": "Feature", "properties": {"name_th": "สนามบินดีไป บุรีรัมย์", "name_en": "DEEPAI BURIRAM AIRFIELD", "icao": "", "iata": "", "type": "Airfield"}, "geometry": {"type": "Point", "coordinates": [102.982867, 15.4011]}},
    {"type": "Feature", "properties": {"name_th": "สนามบินดอกกราย", "name_en": "DOK RAI AIRFIELD", "icao": "", "iata": "", "type": "Airfield"}, "geometry": {"type": "Point", "coordinates": [101.183897, 12.921652]}},
    {"type": "Feature", "properties": {"name_th": "สนามบินอีสเทิร์นพัทยา", "name_en": "EASTERN PATTAYA AIRFIELD", "icao": "", "iata": "", "type": "Airfield"}, "geometry": {"type": "Point", "coordinates": [100.933133, 12.902384]}},
    {"type": "Feature", "properties": {"name_th": "ท่าอากาศยานเชียงใหม่", "name_en": "CHIANG MAI AIRPORT", "icao": "VTCC", "iata": "CNX", "type": "International"}, "geometry": {"type": "Point", "coordinates": [98.9626, 18.7668]}},
    {"type": "Feature", "properties": {"name_th": "ท่าอากาศยานเชียงกลาง", "name_en": "CHIANG KLANG", "icao": "VTCD", "iata": "", "type": "Airport"}, "geometry": {"type": "Point", "coordinates": [100.857087, 19.294031]}},
    {"type": "Feature", "properties": {"name_th": "ท่าอากาศยานดอนเมือง", "name_en": "DON MUANG BANGKOK", "icao": "VTBD", "iata": "DMK", "type": "International"}, "geometry": {"type": "Point", "coordinates": [100.607, 13.9126]}},
    {"type": "Feature", "properties": {"name_th": "สนามบินแก่งกระจาน", "name_en": "KAENG KRAJAN AIRFIELD", "icao": "", "iata": "", "type": "Airfield"}, "geometry": {"type": "Point", "coordinates": [99.793097, 12.872357]}},
    {"type": "Feature", "properties": {"name_th": "ท่าอากาศยานกำแพงแสน (ทหาร)", "name_en": "KAMPHAENG SAEN AIRPORT (MIL)", "icao": "VTBK", "iata": "KDT", "type": "Military"}, "geometry": {"type": "Point", "coordinates": [99.916667, 14.101667]}},
    {"type": "Feature", "properties": {"name_th": "ท่าอากาศยานโคกกระเทียม (ทหาร)", "name_en": "KHOK KATHIAM AIRPORT (MIL)", "icao": "VTBL", "iata": "", "type": "Military"}, "geometry": {"type": "Point", "coordinates": [100.663, 14.8746]}},
    {"type": "Feature", "properties": {"name_th": "สนามบินโคราช (กองทัพอากาศ)", "name_en": "KHORAT (AIRFORCE)", "icao": "VTUN", "iata": "", "type": "Military"}, "geometry": {"type": "Point", "coordinates": [102.078509, 14.935911]}},
    {"type": "Feature", "properties": {"name_th": "ท่าอากาศยานหาดใหญ่", "name_en": "HAT Yai AIRPORT", "icao": "VTSS", "iata": "HDY", "type": "International"}, "geometry": {"type": "Point", "coordinates": [100.3925, 6.933056]}},
    {"type": "Feature", "properties": {"name_th": "สนามบินโคราช (กองทัพบก)", "name_en": "KHORAT (ARMY)", "icao": "", "iata": "", "type": "Military"}, "geometry": {"type": "Point", "coordinates": [102.073585, 14.954487]}},
    {"type": "Feature", "properties": {"name_th": "สนามบินขุนยวม (ฉุกเฉิน)", "name_en": "KHUN YUAM (FOR EMERGENCY)", "icao": "VTCK", "iata": "", "type": "Emergency"}, "geometry": {"type": "Point", "coordinates": [97.931049, 18.824376]}},
    {"type": "Feature", "properties": {"name_th": "สนามบินแกลง", "name_en": "KLAENG AIRFIELD (UL/LSA)", "icao": "", "iata": "", "type": "Airfield"}, "geometry": {"type": "Point", "coordinates": [101.630529, 12.709831]}},
    {"type": "Feature", "properties": {"name_th": "สนามบินห้องแซง (ฉุกเฉิน/ปิด)", "name_en": "HONG SAENG (CLOSED EMERGENCY)", "icao": "", "iata": "", "type": "Emergency"}, "geometry": {"type": "Point", "coordinates": [105.476389, 14.725278]}},
    {"type": "Feature", "properties": {"name_th": "สนามบินคลอง 4", "name_en": "KLONG 4 AIRFIELD", "icao": "", "iata": "", "type": "Airfield"}, "geometry": {"type": "Point", "coordinates": [100.691667, 14.169167]}},
    {"type": "Feature", "properties": {"name_th": "สนามบินเกาะจันทร์ (ชลบุรี)", "name_en": "KO CHAN (CHONBURI)", "icao": "", "iata": "", "type": "Airfield"}, "geometry": {"type": "Point", "coordinates": [101.32054, 13.393951]}},
    {"type": "Feature", "properties": {"name_th": "สนามบินหินซ้อน", "name_en": "HINZON FIELD", "icao": "", "iata": "", "type": "Airfield"}, "geometry": {"type": "Point", "coordinates": [101.613489, 13.776963]}},
    {"type": "Feature", "properties": {"name_th": "ท่าอากาศยานหัวหิน", "name_en": "HUA HIN AIRPORT", "icao": "VTPH", "iata": "HHQ", "type": "Commercial"}, "geometry": {"type": "Point", "coordinates": [99.95333, 12.630278]}},
    {"type": "Feature", "properties": {"name_th": "สนามบินคลอง 15 นครนายก", "name_en": "KLONG 15 NAKHON NAYOK AIRFIELD", "icao": "", "iata": "", "type": "Airfield"}, "geometry": {"type": "Point", "coordinates": [100.949238, 14.114539]}},
    {"type": "Feature", "properties": {"name_th": "สนามบินกมลฟาร์ม (ฉุกเฉิน/ปิด)", "name_en": "KAMOL FARM (CLOSED EMERGENCY)", "icao": "", "iata": "", "type": "Emergency"}, "geometry": {"type": "Point", "coordinates": [101.252048, 14.577151]}},
    {"type": "Feature", "properties": {"name_th": "สนามบินกาญจนบุรี (ทหาร)", "name_en": "KANCHANABURI AIRFIELD (MIL)", "icao": "VTBG", "iata": "", "type": "Military"}, "geometry": {"type": "Point", "coordinates": [99.44723, 14.12613]}},
    {"type": "Feature", "properties": {"name_th": "สนามบินเกาะช้าง", "name_en": "KOH CHANG AIRFIELD", "icao": "", "iata": "", "type": "Airfield"}, "geometry": {"type": "Point", "coordinates": [102.298333, 12.053333]}},
    {"type": "Feature", "properties": {"name_th": "ท่าอากาศยานสมุย", "name_en": "KO SAMUI", "icao": "VTSM", "iata": "USM", "type": "Commercial"}, "geometry": {"type": "Point", "coordinates": [100.0625, 9.549167]}},
    {"type": "Feature", "properties": {"name_th": "สนามบินเกาะกูด", "name_en": "KOH KUD AIRFIELD", "icao": "", "iata": "", "type": "Airfield"}, "geometry": {"type": "Point", "coordinates": [102.520476, 11.717361]}},
    {"type": "Feature", "properties": {"name_th": "ท่าอากาศยานกระบี่", "name_en": "KRABI AIRPORT", "icao": "VTSG", "iata": "KBV", "type": "International"}, "geometry": {"type": "Point", "coordinates": [98.988611, 8.095833]}},
    {"type": "Feature", "properties": {"name_th": "ท่าอากาศยานขอนแก่น", "name_en": "KHON KAEN AIRPORT", "icao": "VTUK", "iata": "KKC", "type": "Commercial"}, "geometry": {"type": "Point", "coordinates": [102.782222, 16.464444]}},
    {"type": "Feature", "properties": {"name_th": "สนามบินโคกตูม", "name_en": "KOK TUM AIRFIELD", "icao": "", "iata": "", "type": "Airfield"}, "geometry": {"type": "Point", "coordinates": [100.858889, 14.814444]}},
    {"type": "Feature", "properties": {"name_th": "ท่าอากาศยานลำปาง", "name_en": "LAMPANG AIRPORT", "icao": "VTCL", "iata": "LPT", "type": "Commercial"}, "geometry": {"type": "Point", "coordinates": [99.504167, 18.272222]}},
    {"type": "Feature", "properties": {"name_th": "สนามบินลำพูน (เครือสหพัฒน์)", "name_en": "LAMPHUN (SAHAPHATANA) AIRFIELD", "icao": "VTCO", "iata": "", "type": "Airfield"}, "geometry": {"type": "Point", "coordinates": [99.0126, 18.549735]}},
    {"type": "Feature", "properties": {"name_th": "ท่าอากาศยานเลย", "name_en": "LOEI AIRPORT", "icao": "VTUL", "iata": "LOE", "type": "Commercial"}, "geometry": {"type": "Point", "coordinates": [101.721944, 17.439167]}},
    {"type": "Feature", "properties": {"name_th": "สนามบินเลิงนกทา (ฉุกเฉิน)", "name_en": "LOENG NOK THA (FOR EMERGENCY)", "icao": "VTUT", "iata": "", "type": "Emergency"}, "geometry": {"type": "Point", "coordinates": [104.591643, 16.158726]}},
    {"type": "Feature", "properties": {"name_th": "สนามบินกลางดง", "name_en": "KLANGDONG AIRFIELD", "icao": "", "iata": "", "type": "Airfield"}, "geometry": {"type": "Point", "coordinates": [101.305556, 14.643056]}},
    {"type": "Feature", "properties": {"name_th": "สนามบินแม่สะเรียง", "name_en": "MAE SARIANG AIRFIELD", "icao": "VTCS", "iata": "", "type": "Airfield"}, "geometry": {"type": "Point", "coordinates": [97.930623, 18.181735]}},
    {"type": "Feature", "properties": {"name_th": "ท่าอากาศยานควนขัน", "name_en": "KHOUN KHAN AIRPORT", "icao": "VTSA", "iata": "", "type": "Airport"}, "geometry": {"type": "Point", "coordinates": [100.08, 6.661389]}},
    {"type": "Feature", "properties": {"name_th": "ท่าอากาศยานแม่ฮ่องสอน", "name_en": "MAE HONG SON AIRPORT", "icao": "VTCH", "iata": "HGN", "type": "Commercial"}, "geometry": {"type": "Point", "coordinates": [97.975, 19.301667]}},
    {"type": "Feature", "properties": {"name_th": "ท่าอากาศยานนครราชสีมา", "name_en": "NAKHON RATCHASIMA AIRPORT", "icao": "VTUQ", "iata": "NAK", "type": "Commercial"}, "geometry": {"type": "Point", "coordinates": [102.312778, 14.949444]}},
    {"type": "Feature", "properties": {"name_th": "สนามบินมีนบุรี", "name_en": "MINBURI AIRFIELD", "icao": "", "iata": "", "type": "Airfield"}, "geometry": {"type": "Point", "coordinates": [100.735433, 13.825391]}},
    {"type": "Feature", "properties": {"name_th": "ท่าอากาศยานนครพนม", "name_en": "NAKHOM PHANOM AIRPORT", "icao": "VTUW", "iata": "KOP", "type": "Commercial"}, "geometry": {"type": "Point", "coordinates": [104.641944, 17.385278]}},
    {"type": "Feature", "properties": {"name_th": "สนามบินเขื่อนน้ำพุง (ใต้)", "name_en": "NAM PHUNG DAM SOUTH", "icao": "VTUF", "iata": "", "type": "Airport"}, "geometry": {"type": "Point", "coordinates": [103.968333, 16.963056]}},
    {"type": "Feature", "properties": {"name_th": "ท่าอากาศยานน่านนคร", "name_en": "NAN AIRPORT", "icao": "VTCN", "iata": "NNT", "type": "Commercial"}, "geometry": {"type": "Point", "coordinates": [100.783333, 18.807778]}},
    {"type": "Feature", "properties": {"name_th": "ท่าอากาศยานแม่สอด", "name_en": "MAE SOT AIRPORT", "icao": "VTPM", "iata": "MAQ", "type": "Commercial"}, "geometry": {"type": "Point", "coordinates": [98.543611, 16.699722]}},
    {"type": "Feature", "properties": {"name_th": "สนามบินหนองปรือ", "name_en": "NONG PRUE AIRFIELD", "icao": "", "iata": "", "type": "Airfield"}, "geometry": {"type": "Point", "coordinates": [100.96, 12.893056]}},
    {"type": "Feature", "properties": {"name_th": "สนามบินนก", "name_en": "NOK AIRFIELD", "icao": "VTCY", "iata": "", "type": "Airfield"}, "geometry": {"type": "Point", "coordinates": [99.111111, 18.676389]}},
    {"type": "Feature", "properties": {"name_th": "สนามบินหนองขาม (ชลบุรี)", "name_en": "NONG KHAM (CHONBURI)", "icao": "", "iata": "", "type": "Airfield"}, "geometry": {"type": "Point", "coordinates": [101.047803, 13.141087]}},
    {"type": "Feature", "properties": {"name_th": "ท่าอากาศยานนครศรีธรรมราช", "name_en": "NAKHON SI THAMMARAT", "icao": "VTSF", "iata": "NST", "type": "Commercial"}, "geometry": {"type": "Point", "coordinates": [99.944808, 8.540197]}},
    {"type": "Feature", "properties": {"name_th": "ท่าอากาศยานนครสวรรค์", "name_en": "NAKHON SAWAN AIRPORT", "icao": "VTPN", "iata": "", "type": "Airport"}, "geometry": {"type": "Point", "coordinates": [100.136111, 15.6725]}},
    {"type": "Feature", "properties": {"name_th": "สนามบินองครักษ์ คลอง 16", "name_en": "ONGKARAK KLONG 16 AIRFIELD", "icao": "", "iata": "", "type": "Airfield"}, "geometry": {"type": "Point", "coordinates": [101.001389, 14.110278]}},
    {"type": "Feature", "properties": {"name_th": "สนามบินน้ำพอง (ทหาร/ฉุกเฉิน)", "name_en": "NAM PHONG (MIL EMERGENCY)", "icao": "VTUZ", "iata": "", "type": "Military"}, "geometry": {"type": "Point", "coordinates": [102.967801, 16.651981]}},
    {"type": "Feature", "properties": {"name_th": "สนามบินปาย", "name_en": "PAI AIRFIELD", "icao": "VTCI", "iata": "PYY", "type": "Commercial"}, "geometry": {"type": "Point", "coordinates": [98.435739, 19.37163]}},
    {"type": "Feature", "properties": {"name_th": "สนามบินปากช่อง (ฉุกเฉิน/ปิด)", "name_en": "PAK CHONG (CLOSED EMERGENCY)", "icao": "VTUH", "iata": "", "type": "Emergency"}, "geometry": {"type": "Point", "coordinates": [101.575, 14.604167]}},
    {"type": "Feature", "properties": {"name_th": "สนามบินป่าหวาย (ฉุกเฉิน)", "name_en": "PAWAI AIRFIELD (FOR EMERGENCY)", "icao": "", "iata": "", "type": "Emergency"}, "geometry": {"type": "Point", "coordinates": [100.652229, 14.773783]}},
    {"type": "Feature", "properties": {"name_th": "สนามบินนางรอง (ฉุกเฉิน)", "name_en": "NANGRONG (FOR EMERGENCY)", "icao": "", "iata": "", "type": "Emergency"}, "geometry": {"type": "Point", "coordinates": [102.770015, 14.630531]}},
    {"type": "Feature", "properties": {"name_th": "ท่าอากาศยานเพชรบูรณ์", "name_en": "PETCHABUN AIRPORT", "icao": "VTPB", "iata": "PHY", "type": "Commercial"}, "geometry": {"type": "Point", "coordinates": [101.195, 16.676111]}},
    {"type": "Feature", "properties": {"name_th": "ท่าอากาศยานเพชรบูรณ์ (ทหาร)", "name_en": "PETCHABUN (MIL) AIRPORT", "icao": "", "iata": "", "type": "Military"}, "geometry": {"type": "Point", "coordinates": [101.11091, 16.399098]}},
    {"type": "Feature", "properties": {"name_th": "สนามบินเขื่อนน้ำพุง (เหนือ)", "name_en": "NAM PHUNG DAM NORTH", "icao": "VTUE", "iata": "", "type": "Airport"}, "geometry": {"type": "Point", "coordinates": [103.968675, 16.976558]}},
    {"type": "Feature", "properties": {"name_th": "ท่าอากาศยานนราธิวาส", "name_en": "NARATHIWAT AIRPORT", "icao": "VTSC", "iata": "NAW", "type": "Commercial"}, "geometry": {"type": "Point", "coordinates": [101.744722, 6.523333]}},
    {"type": "Feature", "properties": {"name_th": "ท่าอากาศยานพิษณุโลก", "name_en": "PHITSANULOK AIRPORT", "icao": "VTPP", "iata": "PHS", "type": "Commercial"}, "geometry": {"type": "Point", "coordinates": [100.281944, 16.773056]}},
    {"type": "Feature", "properties": {"name_th": "สนามบินพนมสารคาม (ฉุกเฉิน)", "name_en": "PHANON SARAKHAM (FOR EMERGENCY)", "icao": "", "iata": "", "type": "Emergency"}, "geometry": {"type": "Point", "coordinates": [101.394444, 13.755278]}},
    {"type": "Feature", "properties": {"name_th": "ท่าอากาศยานปัตตานี", "name_en": "PATTANI AIRORT", "icao": "VTSK", "iata": "PAN", "type": "Commercial"}, "geometry": {"type": "Point", "coordinates": [101.153611, 6.785556]}},
    {"type": "Feature", "properties": {"name_th": "สนามบินเชียงคำ พะเยา", "name_en": "PHAYAO BAN CHIANG KHAM", "icao": "VTCB", "iata": "", "type": "Airfield"}, "geometry": {"type": "Point", "coordinates": [100.284655, 19.499646]}},
    {"type": "Feature", "properties": {"name_th": "ท่าอากาศยานแพร่", "name_en": "PHRAE AIRPORT", "icao": "VTCP", "iata": "PRH", "type": "Commercial"}, "geometry": {"type": "Point", "coordinates": [100.165, 18.132222]}},
    {"type": "Feature", "properties": {"name_th": "ภูเก็ตแอร์พาร์ค", "name_en": "PHUKET AIRPARK FIELD", "icao": "VTSW", "iata": "", "type": "Private/Club"}, "geometry": {"type": "Point", "coordinates": [98.402951, 8.018797]}},
    {"type": "Feature", "properties": {"name_th": "ท่าอากาศยานภูเก็ต", "name_en": "PHUKET AIRPORT", "icao": "VTSP", "iata": "HKT", "type": "International"}, "geometry": {"type": "Point", "coordinates": [98.316389, 8.113056]}},
    {"type": "Feature", "properties": {"name_th": "สนามบินภูเขียว (ปิด)", "name_en": "PHU KHIEO AIRFIELD (CLOSED)", "icao": "VTUG", "iata": "", "type": "Airfield"}, "geometry": {"type": "Point", "coordinates": [102.16, 16.3630555556]}},
    {"type": "Feature", "properties": {"name_th": "สนามบินภูมิพล", "name_en": "PHUMIPOL AIRFIELD", "icao": "VTPY", "iata": "", "type": "Airfield"}, "geometry": {"type": "Point", "coordinates": [99.056667, 17.233333]}},
    {"type": "Feature", "properties": {"name_th": "สนามบินโพธาราม (ฉุกเฉิน)", "name_en": "POTARAM (FOR EMERGENCY)", "icao": "VTPR", "iata": "", "type": "Emergency"}, "geometry": {"type": "Point", "coordinates": [99.729797, 13.666358]}},
    {"type": "Feature", "properties": {"name_th": "ท่าอากาศยานปราจีนบุรี", "name_en": "PRACHINBURI AIRPORT", "icao": "VTBI", "iata": "", "type": "Airport"}, "geometry": {"type": "Point", "coordinates": [101.38027777778, 14.0775]}},
    {"type": "Feature", "properties": {"name_th": "สนามบินราชบุรี (ทหาร/ปิด)", "name_en": "RATCHABURI AIRFIELD (CLOSED MIL)", "icao": "VTBR", "iata": "", "type": "Military"}, "geometry": {"type": "Point", "coordinates": [99.7528, 13.5738]}},
    {"type": "Feature", "properties": {"name_th": "สนามบินริเวอร์แคว", "name_en": "RIVER KWAI AIRFIELD", "icao": "", "iata": "", "type": "Airfield"}, "geometry": {"type": "Point", "coordinates": [99.361369, 14.062685]}},
    {"type": "Feature", "properties": {"name_th": "สนามบินรอบเมือง", "name_en": "ROB MUANG", "icao": "VTUR", "iata": "", "type": "Airport"}, "geometry": {"type": "Point", "coordinates": [103.645833, 16.070278]}},
    {"type": "Feature", "properties": {"name_th": "ท่าอากาศยานประจวบคีรีขันธ์ (ทหาร)", "name_en": "PRACHUAP AIRPORT (MIL)", "icao": "VTBP", "iata": "", "type": "Military"}, "geometry": {"type": "Point", "coordinates": [99.804389, 11.788509]}},
    {"type": "Feature", "properties": {"name_th": "สนามบินปราณบุรีตะวันออก (ไม่ใช้งาน)", "name_en": "PRANBURI EAST (NOT USED)", "icao": "", "iata": "", "type": "Airfield"}, "geometry": {"type": "Point", "coordinates": [99.95694, 12.38889]}},
    {"type": "Feature", "properties": {"name_th": "สนามบินปราณบุรีตะวันตก (ทหาร)", "name_en": "PRANBURI WEST (MIL)", "icao": "VTBN", "iata": "", "type": "Military"}, "geometry": {"type": "Point", "coordinates": [99.869444, 12.4175]}},
    {"type": "Feature", "properties": {"name_th": "ท่าอากาศยานระนอง", "name_en": "RANONG RANONG AIRPORT", "icao": "VTSR", "iata": "UNN", "type": "Commercial"}, "geometry": {"type": "Point", "coordinates": [98.5855, 9.77762]}},
    {"type": "Feature", "properties": {"name_th": "ท่าอากาศยานร้อยเอ็ด", "name_en": "ROI ET AIRPORT", "icao": "VTUV", "iata": "ROI", "type": "Commercial"}, "geometry": {"type": "Point", "coordinates": [103.773611, 16.116667]}},
    {"type": "Feature", "properties": {"name_th": "ท่าอากาศยานสักหลง", "name_en": "SAK LONG AIRPORT", "icao": "VTPL", "iata": "", "type": "Airport"}, "geometry": {"type": "Point", "coordinates": [101.251391, 16.824383]}},
    {"type": "Feature", "properties": {"name_th": "ท่าอากาศยานสระพรานนาค (ทหาร)", "name_en": "SA PRAN NAK AIRPORT (MIL)", "icao": "VTBH", "iata": "KKM", "type": "Military"}, "geometry": {"type": "Point", "coordinates": [100.643, 14.9494]}},
    {"type": "Feature", "properties": {"name_th": "ท่าอากาศยานสกลนคร", "name_en": "SAKON NAKHON AIRPORT", "icao": "VTUI", "iata": "SNO", "type": "Commercial"}, "geometry": {"type": "Point", "coordinates": [104.118333, 17.194722]}},
    {"type": "Feature", "properties": {"name_th": "สนามบินสว่างแดนดิน", "name_en": "SAWANG DAENG DIN FIELD", "icao": "", "iata": "", "type": "Airfield"}, "geometry": {"type": "Point", "coordinates": [103.551205, 17.521946]}},
    {"type": "Feature", "properties": {"name_th": "ท่าอากาศยานสงขลา", "name_en": "SONGKHLA AIRPORT", "icao": "VTSH", "iata": "SGZ", "type": "Commercial"}, "geometry": {"type": "Point", "coordinates": [100.608611, 7.185556]}},
    {"type": "Feature", "properties": {"name_th": "สโมสรการบินสกลนคร", "name_en": "SAKON NAKHON FLYING CLUB", "icao": "", "iata": "", "type": "Private/Club"}, "geometry": {"type": "Point", "coordinates": [104.047778, 17.455]}},
    {"type": "Feature", "properties": {"name_th": "สนามบินศรีราชา", "name_en": "SRI RACHA AIRFIELD", "icao": "", "iata": "", "type": "Airfield"}, "geometry": {"type": "Point", "coordinates": [100.968333, 13.091667]}},
    {"type": "Feature", "properties": {"name_th": "ท่าอากาศยานสุโขทัย", "name_en": "SUKHOTHAI AIRPORT", "icao": "VTPO", "iata": "THS", "type": "Commercial"}, "geometry": {"type": "Point", "coordinates": [99.818056, 17.238]}},
    {"type": "Feature", "properties": {"name_th": "สนามบินสุรเสนา (พิษณุโลก)", "name_en": "SURAT SENA (PITSANULOK)", "icao": "VTPS", "iata": "", "type": "Airfield"}, "geometry": {"type": "Point", "coordinates": [100.539722, 16.83]}},
    {"type": "Feature", "properties": {"name_th": "ท่าอากาศยานสุรินทร์ภักดี", "name_en": "SURIN AIRPORT", "icao": "VTUJ", "iata": "PXR", "type": "Commercial"}, "geometry": {"type": "Point", "coordinates": [103.505556, 14.8683]}},
    {"type": "Feature", "properties": {"name_th": "ท่าอากาศยานตาก", "name_en": "TAK AIRPORT", "icao": "VTPT", "iata": "TKT", "type": "Commercial"}, "geometry": {"type": "Point", "coordinates": [99.253333, 16.895556]}},
    {"type": "Feature", "properties": {"name_th": "สนามบินตำรวจตาก (ฉุกเฉิน/ปิด)", "name_en": "TAK POLICE (CLOSED EMERGENCY)", "icao": "", "iata": "", "type": "Emergency"}, "geometry": {"type": "Point", "coordinates": [99.059771, 16.803093]}},
    {"type": "Feature", "properties": {"name_th": "ท่าอากาศยานตาคลี (ทหาร)", "name_en": "TAKHLI AIRPORT (MIL)", "icao": "VTPI", "iata": "TKH", "type": "Military"}, "geometry": {"type": "Point", "coordinates": [100.3, 15.276389]}},
    {"type": "Feature", "properties": {"name_th": "สนามบินทานตะวัน", "name_en": "TANTAWAN AIRFIELD", "icao": "", "iata": "", "type": "Airfield"}, "geometry": {"type": "Point", "coordinates": [100.776643, 14.770746]}},
    {"type": "Feature", "properties": {"name_th": "สนามบินท่าเรือ", "name_en": "THA RUEA AIRFIELD", "icao": "", "iata": "", "type": "Airfield"}, "geometry": {"type": "Point", "coordinates": [100.732993, 14.560355]}},
    {"type": "Feature", "properties": {"name_th": "ท่าอากาศยานตรัง", "name_en": "TRANG AIRPORT", "icao": "VTST", "iata": "TST", "type": "Commercial"}, "geometry": {"type": "Point", "coordinates": [99.615556, 7.51]}},
    {"type": "Feature", "properties": {"name_th": "สนามบินตำรวจทุ่งสง", "name_en": "THUNGSON POLICE AIRFIELD", "icao": "", "iata": "", "type": "Airfield"}, "geometry": {"type": "Point", "coordinates": [99.712921, 8.167919]}},
    {"type": "Feature", "properties": {"name_th": "ท่าอากาศยานตราด", "name_en": "TRAT AIRPORT (PRV BKK AIRWAYS)", "icao": "VTBO", "iata": "TDX", "type": "Commercial"}, "geometry": {"type": "Point", "coordinates": [102.322222, 12.280556]}},
    {"type": "Feature", "properties": {"name_th": "สนามบินอู่ทอง", "name_en": "U-TONG AIRFIELD", "icao": "", "iata": "", "type": "Airfield"}, "geometry": {"type": "Point", "coordinates": [99.751389, 14.423611]}},
    {"type": "Feature", "properties": {"name_th": "สนามบินสระบุรี", "name_en": "SARABURI FIELD", "icao": "VTBE", "iata": "", "type": "Airfield"}, "geometry": {"type": "Point", "coordinates": [100.917778, 14.5125]}},
    {"type": "Feature", "properties": {"name_th": "ท่าอากาศยานอุบลราชธานี", "name_en": "UBON RATCHATHANI AIRPORT", "icao": "VTUU", "iata": "UBP", "type": "Commercial"}, "geometry": {"type": "Point", "coordinates": [104.87, 15.2513]}},
    {"type": "Feature", "properties": {"name_th": "ท่าอากาศยานอู่ตะเภา", "name_en": "U-TAPAO PATTAYA INTERNATIONAL", "icao": "VTBU", "iata": "UTP", "type": "International"}, "geometry": {"type": "Point", "coordinates": [101.004722, 12.679444]}},
    {"type": "Feature", "properties": {"name_th": "ท่าอากาศยานสุราษฎร์ธานี", "name_en": "SURAT THANI AIRPORT", "icao": "VTSB", "iata": "URT", "type": "Commercial"}, "geometry": {"type": "Point", "coordinates": [99.138889, 9.136111]}},
    {"type": "Feature", "properties": {"name_th": "สนามบินอุดรมาสเตอร์เทค", "name_en": "UDON MASTERTECH FIELD", "icao": "", "iata": "", "type": "Airfield"}, "geometry": {"type": "Point", "coordinates": [103.108333, 17.377778]}},
    {"type": "Feature", "properties": {"name_th": "สนามบินอุ้มผาง", "name_en": "UMPHANG AIRFIELD", "icao": "", "iata": "", "type": "Airfield"}, "geometry": {"type": "Point", "coordinates": [98.861353, 16.025732]}},
    {"type": "Feature", "properties": {"name_th": "ท่าอากาศยานอุตรดิตถ์", "name_en": "UTTARADIT AIRPORT", "icao": "VTPU", "iata": "UTR", "type": "Commercial"}, "geometry": {"type": "Point", "coordinates": [100.238129, 17.675929]}},
    {"type": "Feature", "properties": {"name_th": "สนามบินวัฒนานคร", "name_en": "WATTHANA NAKON AIRFIELD", "icao": "VTBW", "iata": "", "type": "Airfield"}, "geometry": {"type": "Point", "coordinates": [102.315556, 13.768889]}},
    {"type": "Feature", "properties": {"name_th": "ท่าอากาศยานอุดรธานี", "name_en": "UDON THANI AIRPORT", "icao": "VTUD", "iata": "UTH", "type": "Commercial"}, "geometry": {"type": "Point", "coordinates": [102.788, 17.3864]}}
  ]
}
