{
  "type": "FeatureCollection",
  "features": [
    {
      "type": "Feature",
      "id": "vtr1",
      "properties": { "name": "VTR1 BANGKOK CITY", "type": "VTR", "country": "TH" },
      "geometry": { "type": "Point", "coordinates": [100.538333, 13.765000] },
      "properties_details": { "radius_nm": 10, "description": "Circle of 10 NM radius centred on point 134554N 1003218E" }
    },
    {
      "type": "Feature",
      "id": "vtr2",
      "properties": { "name": "VTR2 CHITRLADA PALACE", "type": "VTR", "country": "TH" },
      "geometry": { "type": "Point", "coordinates": [100.521233, 13.768106] },
      "properties_details": { "radius_nm": 1, "description": "Circle of 1 NM radius centred on point 134605.18N 1003116.44E" }
    },
    {
      "type": "Feature",
      "id": "vtr8",
      "properties": { "name": "VTR8 KAMPHAENG SAEN JETTISON", "type": "VTR", "country": "TH" },
      "geometry": { "type": "Polygon", "coordinates": [ [ [100.333333, 12.883333], [100.416667, 12.883333], [100.283333, 12.583333], [100.191667, 12.583333], [100.333333, 12.883333] ] ] }
    },
    {
      "type": "Feature",
      "id": "vtr68",
      "properties": { "name": "VTR68 NAM PHONG", "type": "VTR", "country": "TH" },
      "geometry": { "type": "Polygon", "coordinates": [ [ [102.933108, 16.680161], [102.934983, 16.636361], [102.951853, 16.680347], [102.952308, 16.637436], [102.933108, 16.680161] ] ] }
    },
    {
      "type": "Feature",
      "id": "vtd2",
      "properties": { "name": "VTD2 LOP BURI", "type": "VTD", "country": "TH" },
      "geometry": { "type": "Polygon", "coordinates": [ [ [100.169444, 15.121111], [100.833333, 15.116667], [100.833333, 14.916667], [101.090278, 14.916667], [101.091389, 14.710278], [101.090278, 14.610278], [100.150000, 14.616667], [100.169444, 15.121111] ] ] }
    },
    {
      "type": "Feature",
      "id": "vtd3a",
      "properties": { "name": "VTD3A KABIN BURI/WATTANA NAKHON", "type": "VTD", "country": "TH" },
      "geometry": { "type": "Polygon", "coordinates": [ [ [102.333333, 13.983333], [102.845278, 13.983333], [102.360556, 13.500000], [102.333333, 13.500000], [102.333333, 13.983333] ] ] }
    },
    {
      "type": "Feature",
      "id": "vtd3b",
      "properties": { "name": "VTD3B KABIN BURI/WATTANA NAKHON", "type": "VTD", "country": "TH" },
      "geometry": { "type": "Polygon", "coordinates": [ [ [101.900000, 13.983333], [102.333333, 13.983333], [102.333333, 13.500000], [101.900000, 13.500000], [101.900000, 13.983333] ] ] }
    },
    {
      "type": "Feature",
      "id": "vtd43",
      "properties": { "name": "VTD43 LOP BURI", "type": "VTD", "country": "TH" },
      "geometry": { "type": "Polygon", "coordinates": [ [ [100.796667, 15.218222], [101.929833, 16.451472], [102.179806, 16.334833], [101.263278, 14.818250], [100.796667, 15.218222] ] ] }
    },
    {
      "type": "Feature",
      "id": "vtp1",
      "properties": { "name": "VTP1 BANGKOK CITY (THE GRAND PALACE)", "type": "VTP", "country": "TH" },
      "geometry": { "type": "Point", "coordinates": [100.491389, 13.750000] },
      "properties_details": { "radius_nm": 1, "description": "Circle of 1 NM radius centred on The Grand Palace" }
    },
    {
      "type": "Feature",
      "id": "vtp4",
      "properties": { "name": "VTP4 CHAYBADAL", "type": "VTP", "country": "TH" },
      "geometry": { "type": "Polygon", "coordinates": [ [ [100.950000, 15.050000], [101.350000, 15.050000], [101.350000, 15.350000], [100.950000, 15.350000], [100.950000, 15.050000] ] ] }
    },
    {
      "type": "Feature",
      "properties": { "name": "VTBK CTR (KAMPHAENG SAEN)", "type": "CTR", "country": "TH" },
      "geometry": { "type": "Point", "coordinates": [99.9167, 14.1017] },
      "properties_details": { "radius_nm": 30 }
    },
    {
      "type": "Feature",
      "properties": { "name": "VTBK ATZ (KAMPHAENG SAEN)", "type": "ATZ", "country": "TH" },
      "geometry": { "type": "Point", "coordinates": [99.9167, 14.1017] },
      "properties_details": { "radius_nm": 5 }
    },
    {
      "type": "Feature",
      "properties": { "name": "VTUN CTR (KHORAT)", "type": "CTR", "country": "TH" },
      "geometry": { "type": "Point", "coordinates": [102.0785, 14.9359] },
      "properties_details": { "radius_nm": 30 }
    },
    {
      "type": "Feature",
      "properties": { "name": "VTUN ATZ (KHORAT)", "type": "ATZ", "country": "TH" },
      "geometry": { "type": "Point", "coordinates": [102.0785, 14.9359] },
      "properties_details": { "radius_nm": 5 }
    },
    {
      "type": "Feature",
      "properties": { "name": "VTBL CTR (KHOK KATHIAM)", "type": "CTR", "country": "TH" },
      "geometry": { "type": "Point", "coordinates": [100.6630, 14.8746] },
      "properties_details": { "radius_nm": 12 }
    },
    {
      "type": "Feature",
      "properties": { "name": "VTBL ATZ (KHOK KATHIAM)", "type": "ATZ", "country": "TH" },
      "geometry": { "type": "Point", "coordinates": [100.6630, 14.8746] },
      "properties_details": { "radius_nm": 5 }
    },
    {
      "type": "Feature",
      "properties": { "name": "VTPI CTR (TAKHLI)", "type": "CTR", "country": "TH" },
      "geometry": { "type": "Point", "coordinates": [100.3000, 15.2764] },
      "properties_details": { "radius_nm": 30 }
    },
    {
      "type": "Feature",
      "properties": { "name": "VTPI ATZ (TAKHLI)", "type": "ATZ", "country": "TH" },
      "geometry": { "type": "Point", "coordinates": [100.3000, 15.2764] },
      "properties_details": { "radius_nm": 5 }
    },
    {
      "type": "Feature",
      "properties": { "name": "VTUD CTR (UDON THANI)", "type": "CTR", "country": "TH" },
      "geometry": { "type": "Point", "coordinates": [102.7880, 17.3864] },
      "properties_details": { "radius_nm": 30 }
    },
    {
      "type": "Feature",
      "properties": { "name": "VTUD ATZ (UDON THANI)", "type": "ATZ", "country": "TH" },
      "geometry": { "type": "Point", "coordinates": [102.7880, 17.3864] },
      "properties_details": { "radius_nm": 5 }
    },
    {
      "type": "Feature",
      "properties": { "name": "VTUU CTR (UBON RATCHATHANI)", "type": "CTR", "country": "TH" },
      "geometry": { "type": "Point", "coordinates": [104.8700, 15.2513] },
      "properties_details": { "radius_nm": 30 }
    },
    {
      "type": "Feature",
      "properties": { "name": "VTUU ATZ (UBON RATCHATHANI)", "type": "ATZ", "country": "TH" },
      "geometry": { "type": "Point", "coordinates": [104.8700, 15.2513] },
      "properties_details": { "radius_nm": 5 }
    },
    {
      "type": "Feature",
      "properties": { "name": "VTSB CTR (SURAT THANI)", "type": "CTR", "country": "TH" },
      "geometry": { "type": "Point", "coordinates": [99.1388, 9.1361] },
      "properties_details": { "radius_nm": 30 }
    },
    {
      "type": "Feature",
      "properties": { "name": "VTSB ATZ (SURAT THANI)", "type": "ATZ", "country": "TH" },
      "geometry": { "type": "Point", "coordinates": [99.1388, 9.1361] },
      "properties_details": { "radius_nm": 5 }
    },
    {
      "type": "Feature",
      "properties": { "name": "VTPP CTR (PHITSANULOK)", "type": "CTR", "country": "TH" },
      "geometry": { "type": "Point", "coordinates": [100.2819, 16.7731] },
      "properties_details": { "radius_nm": 30 }
    },
    {
      "type": "Feature",
      "properties": { "name": "VTPP ATZ (PHITSANULOK)", "type": "ATZ", "country": "TH" },
      "geometry": { "type": "Point", "coordinates": [100.2819, 16.7731] },
      "properties_details": { "radius_nm": 5 }
    },
    {
      "type": "Feature",
      "properties": { "name": "VTSS CTR (HAT YAI)", "type": "CTR", "country": "TH" },
      "geometry": { "type": "Point", "coordinates": [100.3925, 6.9331] },
      "properties_details": { "radius_nm": 30 }
    },
    {
      "type": "Feature",
      "properties": { "name": "VTSS ATZ (HAT YAI)", "type": "ATZ", "country": "TH" },
      "geometry": { "type": "Point", "coordinates": [100.3925, 6.9331] },
      "properties_details": { "radius_nm": 5 }
    },
    {
      "type": "Feature",
      "properties": { "name": "VTUZ CTR (NAM PHONG)", "type": "CTR", "country": "TH" },
      "geometry": { "type": "Point", "coordinates": [102.9678, 16.6519] },
      "properties_details": { "radius_nm": 30 }
    },
    {
      "type": "Feature",
      "properties": { "name": "VTUZ ATZ (NAM PHONG)", "type": "ATZ", "country": "TH" },
      "geometry": { "type": "Point", "coordinates": [102.9678, 16.6519] },
      "properties_details": { "radius_nm": 5 }
    },
    {
      "type": "Feature",
      "properties": { "name": "VTBU CTR (U-TAPAO)", "type": "CTR", "country": "TH" },
      "geometry": { "type": "Point", "coordinates": [101.0047, 12.6794] },
      "properties_details": { "radius_nm": 30 }
    },
    {
      "type": "Feature",
      "properties": { "name": "VTBU ATZ (U-TAPAO)", "type": "ATZ", "country": "TH" },
      "geometry": { "type": "Point", "coordinates": [101.0047, 12.6794] },
      "properties_details": { "radius_nm": 5 }
    },
    {
      "type": "Feature",
      "properties": { "name": "VTBS CTR (SUVARNABHUMI)", "type": "CTR", "country": "TH" },
      "geometry": { "type": "Point", "coordinates": [100.7489, 13.6858] },
      "properties_details": { "radius_nm": 30 }
    },
    {
      "type": "Feature",
      "properties": { "name": "VTBS ATZ (SUVARNABHUMI)", "type": "ATZ", "country": "TH" },
      "geometry": { "type": "Point", "coordinates": [100.7489, 13.6858] },
      "properties_details": { "radius_nm": 5 }
    }
  ]
}
